NORAD_CAT_ID,OBJECT_NAME,OBJECT_TYPE,EPOCH,MEAN_MOTION,ECCENTRICITY,INCLINATION,RA_OF_ASC_NODE,ARG_OF_PERICENTER,MEAN_ANOMALY,BSTAR,MEAN_MOTION_DOT,MEAN_MOTION_DDOT,TLE_LINE0,TLE_LINE1,TLE_LINE2,SEMIMAJOR_AXIS,PERIOD,APOGEE,PERIGEE,DECAYED
54063.0,STARLINK-5225,PAYLOAD,2023-11-17 20:13:03,15.08859659,0.0001234,53.2163,167.741,87.4821,272.6312,0.00018052,2.588e-05,0.0,0 STARLINK-5225,1 54063U 22136N   23321.84240673  .00002588  00000-0  18052-3 0  9999,2 54063  53.2163 167.7410 0001234  87.4821 272.6312 15.08859659 59605,6917.82,95.436,540.539,538.832,0.0
54063.0,STARLINK-5225,PAYLOAD,2023-11-18 07:20:48,15.08776795,8.04e-05,53.2246,165.6577,140.3709,219.7343,0.0013472,0.00021181,0.0,0 STARLINK-5225,1 54063U 22136N   23322.30611415  .00021181  00000-0  13472-2 0  9997,2 54063  53.2246 165.6577 0000804 140.3709 219.7343 15.08776795 60151,6918.074,95.442,540.495,539.382,0.0
54063.0,STARLINK-5225,PAYLOAD,2023-11-18 20:03:52,15.0884862,0.0002008,53.2168,163.2772,101.7486,258.3731,-5.208e-05,-1.117e-05,0.0,0 STARLINK-5225,1 54063U 22136N   23322.83601917 -.00001117  00000-0 -52080-4 0  9990,2 54063  53.2168 163.2772 0002008 101.7486 258.3731 15.08848620 60232,6917.854,95.437,541.108,538.33,0.0
54063.0,STARLINK-5225,PAYLOAD,2023-11-18 23:14:38,15.08840312,0.0001348,53.2168,162.6845,99.5502,260.5643,-0.0001186,-2.175e-05,0.0,0 STARLINK-5225,1 54063U 22136N   23322.96850484 -.00002175  00000-0 -11860-3 0  9994,2 54063  53.2168 162.6845 0001348  99.5502 260.5643 15.08840312 60254,6917.879,95.438,540.677,538.812,0.0
54063.0,STARLINK-5225,PAYLOAD,2023-11-19 19:54:39,15.08865153,0.0001474,53.2174,158.819,100.9715,259.1443,-0.00042686,-7.08e-05,0.0,0 STARLINK-5225,1 54063U 22136N   23323.82961850 -.00007080  00000-0 -42686-3 0  9990,2 54063  53.2174 158.8190 0001474 100.9715 259.1443 15.08865153 60380,6917.804,95.436,540.688,538.649,0.0
54063.0,STARLINK-5225,PAYLOAD,2023-11-20 13:23:54,15.0882949,0.0001523,53.2166,155.5482,101.9637,258.1526,0.00011165,1.489e-05,0.0,0 STARLINK-5225,1 54063U 22136N   23324.55826816  .00001489  00000-0  11165-3 0  9996,2 54063  53.2166 155.5482 0001523 101.9637 258.1526 15.08829490 60013,6917.913,95.438,540.831,538.724,0.0
54063.0,STARLINK-5225,PAYLOAD,2023-11-20 19:45:26,15.08831843,0.0001428,53.2165,154.3595,96.5955,263.52,0.00013328,1.833e-05,0.0,0 STARLINK-5225,1 54063U 22136N   23324.82322860  .00001833  00000-0  13328-3 0  9992,2 54063  53.2165 154.3595 0001428  96.5955 263.5200 15.08831843 60531,6917.905,95.438,540.758,538.782,0.0
54063.0,STARLINK-5225,PAYLOAD,2023-11-21 11:39:18,15.08834091,0.0001402,53.2164,151.3858,95.3807,264.7345,0.00012033,1.627e-05,0.0,0 STARLINK-5225,1 54063U 22136N   23325.48563193  .00001627  00000-0  12033-3 0  9994,2 54063  53.2164 151.3858 0001402  95.3807 264.7345 15.08834091 60153,6917.898,95.438,540.733,538.794,0.0
54063.0,STARLINK-5225,PAYLOAD,2023-11-21 19:36:14,15.08839505,0.0001414,53.2164,149.8991,95.5895,264.5259,0.00014187,1.971e-05,0.0,0 STARLINK-5225,1 54063U 22136N   23325.81683054  .00001971  00000-0  14187-3 0  9994,2 54063  53.2164 149.8991 0001414  95.5895 264.5259 15.08839505 60208,6917.882,95.438,540.725,538.769,0.0
54063.0,STARLINK-5225,PAYLOAD,2023-11-21 21:11:37,15.08840848,0.000141,53.2163,149.6014,94.7946,265.3207,0.00015323,2.152e-05,0.0,0 STARLINK-5225,1 54063U 22136N   23325.88306974  .00002152  00000-0  15323-3 0  9999,2 54063  53.2163 149.6014 0001410  94.7946 265.3207 15.08840848 60692,6917.878,95.438,540.718,538.767,0.0
54063.0,STARLINK-5225,PAYLOAD,2023-11-22 13:05:28,15.08842067,0.0001416,53.2155,146.6278,93.4643,266.6511,0.00014091,1.955e-05,0.0,0 STARLINK-5225,1 54063U 22136N   23326.54547045  .00001955  00000-0  14091-3 0  9990,2 54063  53.2155 146.6278 0001416  93.4643 266.6511 15.08842067 60314,6917.874,95.437,540.719,538.76,0.0
54063.0,STARLINK-5225,PAYLOAD,2023-11-22 19:27:01,15.08844796,0.000141,53.2155,145.4383,93.0193,267.096,0.00016426,2.328e-05,0.0,0 STARLINK-5225,1 54063U 22136N   23326.81042891  .00002328  00000-0  16426-3 0  9998,2 54063  53.2155 145.4383 0001410  93.0193 267.0960 15.08844796 60356,6917.866,95.437,540.706,538.755,0.0
54063.0,STARLINK-5225,PAYLOAD,2023-11-23 19:17:49,15.08814643,0.0001473,53.2158,140.9767,80.6437,279.4722,-0.00027636,-4.68e-05,0.0,0 STARLINK-5225,1 54063U 22136N   23327.80404909 -.00004680  00000-0 -27636-3 0  9990,2 54063  53.2158 140.9767 0001473  80.6437 279.4722 15.08814643 60987,6917.958,95.439,540.842,538.804,0.0
54063.0,STARLINK-5225,PAYLOAD,2023-11-23 20:53:13,15.08813751,0.0001498,53.2158,140.6794,79.1623,280.9537,-0.00027697,-4.69e-05,0.0,0 STARLINK-5225,1 54063U 22136N   23327.87029061 -.00004690  00000-0 -27697-3 0  9997,2 54063  53.2158 140.6794 0001498  79.1623 280.9537 15.08813751 60510,6917.961,95.439,540.862,538.789,0.0
54063.0,STARLINK-5225,PAYLOAD,2023-11-24 11:11:41,15.08827055,0.0001492,53.2158,138.0028,85.7926,274.3237,-2.6521e-05,-7.1e-06,0.0,0 STARLINK-5225,1 54063U 22136N   23328.46645072 -.00000710  00000-0 -26521-4 0  9994,2 54063  53.2158 138.0028 0001492  85.7926 274.3237 15.08827055 61083,6917.92,95.438,540.817,538.753,0.0
54063.0,STARLINK-5225,PAYLOAD,2023-11-24 17:33:14,15.08829851,0.0001781,53.2153,136.8179,57.8951,302.2213,6.3907e-05,7.29e-06,0.0,0 STARLINK-5225,1 54063U 22136N   23328.73141508  .00000729  00000-0  63907-4 0  9996,2 54063  53.2153 136.8179 0001781  57.8951 302.2213 15.08829851 60642,6917.911,95.438,541.008,538.544,0.0
54063.0,STARLINK-5225,PAYLOAD,2023-11-25 20:34:46,15.08872013,0.0001639,53.2144,131.7592,60.9378,299.1778,0.0010791,0.00016943,0.0,0 STARLINK-5225,1 54063U 22136N   23329.85748718  .00016943  00000-0  10791-2 0  9992,2 54063  53.2144 131.7592 0001639  60.9378 299.1778 15.08872013 60812,6917.783,95.436,540.781,538.514,0.0
54063.0,STARLINK-5225,PAYLOAD,2023-11-26 14:04:00,15.08869714,0.0001628,53.2157,128.4849,98.9192,261.1984,0.00046169,7.073e-05,0.0,0 STARLINK-5225,1 54063U 22136N   23330.58611398  .00007073  00000-0  46169-3 0  9990,2 54063  53.2157 128.4849 0001628  98.9192 261.1984 15.08869714 60921,6917.79,95.436,540.781,538.528,0.0
54063.0,STARLINK-5225,PAYLOAD,2023-11-26 17:14:46,15.08871994,0.0001646,53.2159,127.8905,92.0565,268.0616,0.00045391,6.95e-05,0.0,0 STARLINK-5225,1 54063U 22136N   23330.71859127  .00006950  00000-0  45391-3 0  9998,2 54063  53.2159 127.8905 0001646  92.0565 268.0616 15.08871994 61425,6917.783,95.436,540.786,538.509,0.0
54063.0,STARLINK-5225,PAYLOAD,2023-11-27 13:54:45,15.08871336,0.0001707,53.2168,124.0248,87.0731,273.0457,0.00016036,2.267e-05,0.0,0 STARLINK-5225,1 54063U 22136N   23331.57969477  .00002267  00000-0  16036-3 0  9994,2 54063  53.2168 124.0248 0001707  87.0731 273.0457 15.08871336 61071,6917.785,95.436,540.83,538.469,0.0
54063.0,STARLINK-5225,PAYLOAD,2023-11-27 15:30:08,15.08849019,0.0001567,53.2164,123.7262,87.3009,272.8163,-0.00040964,-6.803e-05,0.0,0 STARLINK-5225,1 54063U 22136N   23331.64593704 -.00006803  00000-0 -40964-3 0  9997,2 54063  53.2164 123.7262 0001567  87.3009 272.8163 15.08849019 61562,6917.853,95.437,540.802,538.634,0.0
54063.0,STARLINK-5225,PAYLOAD,2023-11-28 10:34:47,15.08832009,0.0001697,53.2174,120.1638,94.8121,265.3065,-0.0003772,-6.285e-05,0.0,0 STARLINK-5225,1 54063U 22136N   23332.44082306 -.00006285  00000-0 -37720-3 0  9997,2 54063  53.2174 120.1638 0001697  94.8121 265.3065 15.08832009 61685,6917.905,95.438,540.944,538.596,0.0
54063.0,STARLINK-5225,PAYLOAD,2023-11-28 13:45:33,15.08835043,0.0001654,53.2172,119.5693,91.3135,268.8047,-0.00027125,-4.602e-05,0.0,0 STARLINK-5225,1 54063U 22136N   23332.57330439 -.00004602  00000-0 -27125-3 0  9993,2 54063  53.2172 119.5693 0001654  91.3135 268.8047 15.08835043 61225,6917.896,95.438,540.905,538.616,0.0
54063.0,STARLINK-5225,PAYLOAD,2023-11-28 15:20:56,15.08836288,0.0001452,53.2156,119.2673,90.7171,269.3988,-0.00025564,-4.354e-05,0.0,0 STARLINK-5225,1 54063U 22136N   23332.63954329 -.00004354  00000-0 -25564-3 0  9999,2 54063  53.2156 119.2673 0001452  90.7171 269.3988 15.08836288 61234,6917.892,95.438,540.761,538.752,0.0
54063.0,STARLINK-5225,PAYLOAD,2023-11-29 13:36:21,15.08837898,0.0001473,53.2159,115.1042,92.6851,267.431,0.00031127,4.669e-05,0.0,0 STARLINK-5225,1 54063U 22136N   23333.56691268  .00004669  00000-0  31127-3 0  9991,2 54063  53.2159 115.1042 0001473  92.6851 267.4310 15.08837898 61372,6917.887,95.438,540.771,538.733,0.0
54063.0,STARLINK-5225,PAYLOAD,2023-11-29 15:11:44,15.08838401,0.0001455,53.2161,114.8068,91.4817,268.6342,0.00041563,6.333e-05,0.0,0 STARLINK-5225,1 54063U 22136N   23333.63315362  .00006333  00000-0  41563-3 0  9992,2 54063  53.2161 114.8068 0001455  91.4817 268.6342 15.08838401 61861,6917.885,95.438,540.757,538.744,0.0
54063.0,STARLINK-5225,PAYLOAD,2023-11-30 08:40:59,15.08832303,0.0001552,53.216,111.5372,81.9671,278.1497,0.00063913,9.896e-05,0.0,0 STARLINK-5225,1 54063U 22136N   23334.36180119  .00009896  00000-0  63913-3 0  9993,2 54063  53.2160 111.5372 0001552  81.9671 278.1497 15.08832303 61976,6917.904,95.438,540.843,538.695,0.0
54063.0,STARLINK-5225,PAYLOAD,2023-12-01 08:31:46,15.08837861,0.0001633,53.2179,107.0826,71.8206,288.2964,0.00012668,1.729e-05,0.0,0 STARLINK-5225,1 54063U 22136N   23335.35540134  .00001729  00000-0  12668-3 0  9998,2 54063  53.2179 107.0826 0001633  71.8206 288.2964 15.08837861 62125,6917.887,95.438,540.882,538.622,0.0
54063.0,STARLINK-5225,PAYLOAD,2023-12-01 16:28:41,15.08848742,0.0001681,53.217,105.5942,86.1032,274.0152,2.8158e-05,1.6e-06,0.0,0 STARLINK-5225,1 54063U 22136N   23335.68659688  .00000160  00000-0  28158-4 0  9999,2 54063  53.2170 105.5942 0001681  86.1032 274.0152 15.08848742 62174,6917.854,95.437,540.882,538.556,0.0
54063.0,STARLINK-5225,PAYLOAD,2023-12-02 13:08:42,15.08857633,0.0001296,53.2155,101.7272,76.5143,283.5994,0.00036653,5.553e-05,0.0,0 STARLINK-5225,1 54063U 22136N   23336.54771085  .00005553  00000-0  36653-3 0  9990,2 54063  53.2155 101.7272 0001296  76.5143 283.5994 15.08857633 61828,6917.826,95.436,540.588,538.795,0.0
